[Satellite]
VERSION=1.1
NAME=GOES 15
NICKNAME=GOES 15
TLE1=1 36411U 10008A   20157.59138612  .00000047  00000-0  00000-0 0  9995
TLE2=2 36411   0.1443 272.1045 0002949 170.0788 257.1722  1.00278398 37593
STATUS=0
